{
  "type": "FeatureCollection",
  "features": [
    {
      "type": "Feature",
      "properties": {
        "norad_id": 30118,
        "name": "FENGYUN 1C DEB",
        "group": "fengyun-1c-debris",
        "lat": -72.6689851898963,
        "lon": 31.337869438004972,
        "alt_km": 896.7658599808101,
        "timestamp": "2025-12-24T03:53:29.921044+00:00",
        "meta_object_name": "FENGYUN 1C DEB",
        "meta_object_id": "1999-025RX",
        "meta_epoch": "2025-12-23T18:51:03.210912",
        "meta_mean_motion": 14.05124972,
        "meta_eccentricity": 0.008492,
        "meta_inclination": 98.8031,
        "meta_ra_of_asc_node": 1.1986,
        "meta_arg_of_pericenter": 29.0994,
        "meta_mean_anomaly": 152.4161,
        "meta_ephemeris_type": 0,
        "meta_classification_type": "U",
        "meta_norad_cat_id": 30118,
        "meta_element_set_no": 999,
        "meta_rev_at_epoch": 97086,
        "meta_bstar": 8.0127e-05,
        "meta_mean_motion_dot": 9.1e-07,
        "meta_mean_motion_ddot": 0,
        "tle_line1": "1 30118U 99025RX  25357.78545383  .00000091  00000+0  80127-4 0  9994",
        "tle_line2": "2 30118  98.8031   1.1986 0084920  29.0994 152.4161 14.05124972970860"
      },
      "geometry": {
        "type": "Point",
        "coordinates": [
          31.337869438004972,
          -72.6689851898963
        ]
      }
    },
    {
      "type": "Feature",
      "properties": {
        "norad_id": 30119,
        "name": "FENGYUN 1C DEB",
        "group": "fengyun-1c-debris",
        "lat": -25.76137492109569,
        "lon": 167.13299820339367,
        "alt_km": 765.9919639724694,
        "timestamp": "2025-12-24T03:53:29.921054+00:00",
        "meta_object_name": "FENGYUN 1C DEB",
        "meta_object_id": "1999-025RY",
        "meta_epoch": "2025-12-21T11:22:48.689760",
        "meta_mean_motion": 14.22293665,
        "meta_eccentricity": 0.0130659,
        "meta_inclination": 97.9202,
        "meta_ra_of_asc_node": 348.5683,
        "meta_arg_of_pericenter": 266.9972,
        "meta_mean_anomaly": 224.8562,
        "meta_ephemeris_type": 0,
        "meta_classification_type": "U",
        "meta_norad_cat_id": 30119,
        "meta_element_set_no": 999,
        "meta_rev_at_epoch": 97304,
        "meta_bstar": 0.0010592084,
        "meta_mean_motion_dot": 2.53e-05,
        "meta_mean_motion_ddot": 0,
        "tle_line1": "1 30119U 99025RY  25355.47417465  .00002530  00000+0  10592-2 0  9995",
        "tle_line2": "2 30119  97.9202 348.5683 0130659 266.9972 224.8562 14.22293665973049"
      },
      "geometry": {
        "type": "Point",
        "coordinates": [
          167.13299820339367,
          -25.76137492109569
        ]
      }
    },
    {
      "type": "Feature",
      "properties": {
        "norad_id": 30120,
        "name": "FENGYUN 1C DEB",
        "group": "fengyun-1c-debris",
        "lat": 28.662028467470208,
        "lon": 75.32026889931106,
        "alt_km": 837.6513025646882,
        "timestamp": "2025-12-24T03:53:29.921065+00:00",
        "meta_object_name": "FENGYUN 1C DEB",
        "meta_object_id": "1999-025RZ",
        "meta_epoch": "2025-12-23T04:31:08.308704",
        "meta_mean_motion": 14.27692811,
        "meta_eccentricity": 0.00639096,
        "meta_inclination": 98.8513,
        "meta_ra_of_asc_node": 79.2203,
        "meta_arg_of_pericenter": 181.8289,
        "meta_mean_anomaly": 245.1425,
        "meta_ephemeris_type": 0,
        "meta_classification_type": "U",
        "meta_norad_cat_id": 30120,
        "meta_element_set_no": 999,
        "meta_rev_at_epoch": 97520,
        "meta_bstar": 0.0018903353,
        "meta_mean_motion_dot": 4.721e-05,
        "meta_mean_motion_ddot": 0,
        "tle_line1": "1 30120U 99025RZ  25357.18829061  .00004721  00000+0  18903-2 0  9994",
        "tle_line2": "2 30120  98.8513  79.2203 0063909 181.8289 245.1425 14.27692811975206"
      },
      "geometry": {
        "type": "Point",
        "coordinates": [
          75.32026889931106,
          28.662028467470208
        ]
      }
    },
    {
      "type": "Feature",
      "properties": {
        "norad_id": 30121,
        "name": "FENGYUN 1C DEB",
        "group": "fengyun-1c-debris",
        "lat": 73.62657575648397,
        "lon": -22.90874353536102,
        "alt_km": 739.0308065251402,
        "timestamp": "2025-12-24T03:53:29.921075+00:00",
        "meta_object_name": "FENGYUN 1C DEB",
        "meta_object_id": "1999-025SA",
        "meta_epoch": "2025-12-23T19:59:23.169120",
        "meta_mean_motion": 14.40127413,
        "meta_eccentricity": 0.0030466,
        "meta_inclination": 102.1636,
        "meta_ra_of_asc_node": 23.8552,
        "meta_arg_of_pericenter": 137.0389,
        "meta_mean_anomaly": 36.1415,
        "meta_ephemeris_type": 0,
        "meta_classification_type": "U",
        "meta_norad_cat_id": 30121,
        "meta_element_set_no": 999,
        "meta_rev_at_epoch": 97699,
        "meta_bstar": 0.001968,
        "meta_mean_motion_dot": 6.18e-05,
        "meta_mean_motion_ddot": 0,
        "tle_line1": "1 30121U 99025SA  25357.83290705  .00006180  00000+0  19680-2 0  9998",
        "tle_line2": "2 30121 102.1636  23.8552 0030466 137.0389  36.1415 14.40127413976990"
      },
      "geometry": {
        "type": "Point",
        "coordinates": [
          -22.90874353536102,
          73.62657575648397
        ]
      }
    },
    {
      "type": "Feature",
      "properties": {
        "norad_id": 30123,
        "name": "FENGYUN 1C DEB",
        "group": "fengyun-1c-debris",
        "lat": -8.824190559473779,
        "lon": -62.664640161786046,
        "alt_km": 720.6847704402917,
        "timestamp": "2025-12-24T03:53:29.921086+00:00",
        "meta_object_name": "FENGYUN 1C DEB",
        "meta_object_id": "1999-025SC",
        "meta_epoch": "2025-12-22T08:09:01.191168",
        "meta_mean_motion": 14.26063262,
        "meta_eccentricity": 0.0230762,
        "meta_inclination": 96.9279,
        "meta_ra_of_asc_node": 294.8095,
        "meta_arg_of_pericenter": 55.7588,
        "meta_mean_anomaly": 306.5223,
        "meta_ephemeris_type": 0,
        "meta_classification_type": "U",
        "meta_norad_cat_id": 30123,
        "meta_element_set_no": 999,
        "meta_rev_at_epoch": 97384,
        "meta_bstar": 0.0018684,
        "meta_mean_motion_dot": 5.881e-05,
        "meta_mean_motion_ddot": 0,
        "tle_line1": "1 30123U 99025SC  25356.33959712  .00005881  00000+0  18684-2 0  9994",
        "tle_line2": "2 30123  96.9279 294.8095 0230762  55.7588 306.5223 14.26063262973842"
      },
      "geometry": {
        "type": "Point",
        "coordinates": [
          -62.664640161786046,
          -8.824190559473779
        ]
      }
    },
    {
      "type": "Feature",
      "properties": {
        "norad_id": 30124,
        "name": "FENGYUN 1C DEB",
        "group": "fengyun-1c-debris",
        "lat": 22.625510180481637,
        "lon": -123.87590749384437,
        "alt_km": 830.7862388331978,
        "timestamp": "2025-12-24T03:53:29.921096+00:00",
        "meta_object_name": "FENGYUN 1C DEB",
        "meta_object_id": "1999-025SD",
        "meta_epoch": "2025-12-23T03:30:39.296160",
        "meta_mean_motion": 14.14266424,
        "meta_eccentricity": 0.01427544,
        "meta_inclination": 99.1308,
        "meta_ra_of_asc_node": 51.2425,
        "meta_arg_of_pericenter": 76.5781,
        "meta_mean_anomaly": 309.493,
        "meta_ephemeris_type": 0,
        "meta_classification_type": "U",
        "meta_norad_cat_id": 30124,
        "meta_element_set_no": 999,
        "meta_rev_at_epoch": 97062,
        "meta_bstar": 0.00078750097,
        "meta_mean_motion_dot": 1.613e-05,
        "meta_mean_motion_ddot": 0,
        "tle_line1": "1 30124U 99025SD  25357.14628815  .00001613  00000+0  78750-3 0  9992",
        "tle_line2": "2 30124  99.1308  51.2425 0142754  76.5781 309.4930 14.14266424970624"
      },
      "geometry": {
        "type": "Point",
        "coordinates": [
          -123.87590749384437,
          22.625510180481637
        ]
      }
    },
    {
      "type": "Feature",
      "properties": {
        "norad_id": 30125,
        "name": "FENGYUN 1C DEB",
        "group": "fengyun-1c-debris",
        "lat": -64.17650562198735,
        "lon": 115.3765150349228,
        "alt_km": 587.0549702983417,
        "timestamp": "2025-12-24T03:53:29.921107+00:00",
        "meta_object_name": "FENGYUN 1C DEB",
        "meta_object_id": "1999-025SE",
        "meta_epoch": "2025-12-22T20:42:25.201152",
        "meta_mean_motion": 14.22698443,
        "meta_eccentricity": 0.03417212,
        "meta_inclination": 98.7238,
        "meta_ra_of_asc_node": 95.588,
        "meta_arg_of_pericenter": 314.7716,
        "meta_mean_anomaly": 169.5724,
        "meta_ephemeris_type": 0,
        "meta_classification_type": "U",
        "meta_norad_cat_id": 30125,
        "meta_element_set_no": 999,
        "meta_rev_at_epoch": 97065,
        "meta_bstar": 0.00052645508,
        "meta_mean_motion_dot": 2.093e-05,
        "meta_mean_motion_ddot": 0,
        "tle_line1": "1 30125U 99025SE  25356.86279168  .00002093  00000+0  52646-3 0  9993",
        "tle_line2": "2 30125  98.7238  95.5880 0341721 314.7716 169.5724 14.22698443970656"
      },
      "geometry": {
        "type": "Point",
        "coordinates": [
          115.3765150349228,
          -64.17650562198735
        ]
      }
    }
  ]
}